NORAD_CAT_ID,OBJECT_NAME,OBJECT_TYPE,EPOCH,MEAN_MOTION,ECCENTRICITY,INCLINATION,RA_OF_ASC_NODE,ARG_OF_PERICENTER,MEAN_ANOMALY,BSTAR,MEAN_MOTION_DOT,MEAN_MOTION_DDOT,TLE_LINE0,TLE_LINE1,TLE_LINE2,SEMIMAJOR_AXIS,PERIOD,APOGEE,PERIGEE,DECAYED
52669.0,STARLINK-3972,PAYLOAD,2024-08-05 01:25:18,15.08844995,0.0001484,53.2167,245.165,99.1221,260.9939,0.00023845,3.51e-05,0.0,0 STARLINK-3972,1 52669U 22053P   24218.05923644  .00003510  00000-0  23845-3 0  9994,2 52669  53.2167 245.1650 0001484  99.1221 260.9939 15.08844995123230,6917.865,95.437,540.757,538.704,0.0
52669.0,STARLINK-3972,PAYLOAD,2024-08-05 06:11:27,15.08837126,0.0001423,53.2153,244.2726,98.6412,261.4742,0.00031775,4.772e-05,0.0,0 STARLINK-3972,1 52669U 22053P   24218.25796284  .00004772  00000-0  31775-3 0  9996,2 52669  53.2153 244.2726 0001423  98.6412 261.4742 15.08837126123267,6917.889,95.438,540.739,538.77,0.0
52669.0,STARLINK-3972,PAYLOAD,2024-08-05 18:54:32,15.08846784,0.0001704,53.2166,241.8922,82.9125,277.2061,0.0002639,3.915e-05,0.0,0 STARLINK-3972,1 52669U 22053P   24218.78787781  .00003915  00000-0  26390-3 0  9991,2 52669  53.2166 241.8922 0001704  82.9125 277.2061 15.08846784123349,6917.86,95.437,540.903,538.546,0.0
52669.0,STARLINK-3972,PAYLOAD,2024-08-06 07:37:38,15.08833942,0.0001458,53.2148,239.5123,90.2091,269.9068,-8.8493e-06,-4.29e-06,0.0,0 STARLINK-3972,1 52669U 22053P   24219.31780426 -.00000429  00000-0 -88493-5 0  9993,2 52669  53.2148 239.5123 0001458  90.2091 269.9068 15.08833942123422,6917.899,95.438,540.773,538.755,0.0
52669.0,STARLINK-3972,PAYLOAD,2024-08-06 18:45:20,15.08839633,0.0001511,53.2152,237.4312,86.6059,273.5106,5.2622e-05,5.5e-06,0.0,0 STARLINK-3972,1 52669U 22053P   24219.78148298  .00000550  00000-0  52622-4 0  9996,2 52669  53.2152 237.4312 0001511  86.6059 273.5106 15.08839633123491,6917.882,95.438,540.792,538.701,0.0
52669.0,STARLINK-3972,PAYLOAD,2024-08-07 10:39:11,15.08848547,0.0001432,53.2143,234.4569,88.845,271.2706,0.00028976,4.328e-05,0.0,0 STARLINK-3972,1 52669U 22053P   24220.44387924  .00004328  00000-0  28976-3 0  9993,2 52669  53.2143 234.4569 0001432  88.8450 271.2706 15.08848547123599,6917.854,95.437,540.71,538.729,0.0
52669.0,STARLINK-3972,PAYLOAD,2024-08-08 10:29:58,15.08843343,0.0001326,53.2142,229.9948,93.8867,266.2277,0.00019602,2.833e-05,0.0,0 STARLINK-3972,1 52669U 22053P   24221.43748137  .00002833  00000-0  19602-3 0  9995,2 52669  53.2142 229.9948 0001326  93.8867 266.2277 15.08843343123741,6917.87,95.437,540.652,538.818,0.0
52669.0,STARLINK-3972,PAYLOAD,2024-08-09 10:20:45,15.08842299,0.0001322,53.2149,225.5351,93.0122,267.1022,2.8264e-05,1.62e-06,0.0,0 STARLINK-3972,1 52669U 22053P   24222.43108047  .00000162  00000-0  28264-4 0  9994,2 52669  53.2149 225.5351 0001322  93.0122 267.1022 15.08842299123893,6917.873,95.437,540.653,538.824,0.0
52669.0,STARLINK-3972,PAYLOAD,2024-08-10 03:50:00,15.08834873,0.0001272,53.2156,222.2642,93.6924,266.4214,4.4858e-05,4.26e-06,0.0,0 STARLINK-3972,1 52669U 22053P   24223.15972640  .00000426  00000-0  44858-4 0  9992,2 52669  53.2156 222.2642 0001272  93.6924 266.4214 15.08834873124006,6917.896,95.438,540.641,538.881,0.0
52669.0,STARLINK-3972,PAYLOAD,2024-08-11 10:02:19,15.08840108,0.0001343,53.2158,216.6149,94.4793,265.6353,9.4806e-05,1.221e-05,0.0,0 STARLINK-3972,1 52669U 22053P   24224.41828658  .00001221  00000-0  94806-4 0  9993,2 52669  53.2158 216.6149 0001343  94.4793 265.6353 15.08840108124192,6917.88,95.438,540.674,538.816,0.0
52669.0,STARLINK-3972,PAYLOAD,2024-08-11 16:23:51,15.08849884,0.0001437,53.2167,215.4265,96.3792,263.7364,0.00017039,2.426e-05,0.0,0 STARLINK-3972,1 52669U 22053P   24224.68323865  .00002426  00000-0  17039-3 0  9992,2 52669  53.2167 215.4265 0001437  96.3792 263.7364 15.08849884124238,6917.85,95.437,540.709,538.721,0.0
52669.0,STARLINK-3972,PAYLOAD,2024-08-12 05:06:57,15.08841055,0.0001615,53.2169,213.0474,94.1221,265.9955,0.00014918,2.087e-05,0.0,0 STARLINK-3972,1 52669U 22053P   24225.21316512  .00002087  00000-0  14918-3 0  9999,2 52669  53.2169 213.0474 0001615  94.1221 265.9955 15.08841055124318,6917.877,95.437,540.859,538.625,0.0
52669.0,STARLINK-3972,PAYLOAD,2024-08-12 08:17:43,15.08852106,0.0001483,53.2156,212.4526,92.2075,267.9087,0.00029644,4.435e-05,0.0,0 STARLINK-3972,1 52669U 22053P   24225.34563942  .00004435  00000-0  29644-3 0  9995,2 52669  53.2156 212.4526 0001483  92.2075 267.9087 15.08852106124333,6917.843,95.437,540.734,538.682,0.0
52669.0,STARLINK-3972,PAYLOAD,2024-08-12 16:14:37,15.08871235,0.0001551,53.2153,210.9655,75.4717,284.6448,0.00051083,7.858e-05,0.0,0 STARLINK-3972,1 52669U 22053P   24225.67682674  .00007858  00000-0  51083-3 0  9999,2 52669  53.2153 210.9655 0001551  75.4717 284.6448 15.08871235124384,6917.785,95.436,540.723,538.577,0.0
52669.0,STARLINK-3972,PAYLOAD,2024-08-13 04:57:44,15.0883554,0.0001672,53.2159,208.5872,80.5106,279.6075,-0.00019963,-3.463e-05,0.0,0 STARLINK-3972,1 52669U 22053P   24226.20676053 -.00003463  00000-0 -19963-3 0  9994,2 52669  53.2159 208.5872 0001672  80.5106 279.6075 15.08835540124465,6917.894,95.438,540.916,538.602,0.0
52669.0,STARLINK-3972,PAYLOAD,2024-08-13 08:08:30,15.08838057,0.0001728,53.2161,207.9925,79.329,280.7897,-0.00013435,-2.426e-05,0.0,0 STARLINK-3972,1 52669U 22053P   24226.33923993 -.00002426  00000-0 -13435-3 0  9992,2 52669  53.2161 207.9925 0001728  79.3290 280.7897 15.08838057124485,6917.886,95.438,540.947,538.556,0.0
52669.0,STARLINK-3972,PAYLOAD,2024-08-13 22:26:58,15.08835012,0.0001805,53.216,205.3181,79.2062,280.9133,-9.9383e-05,-1.869e-05,0.0,0 STARLINK-3972,1 52669U 22053P   24226.93540311 -.00001869  00000-0 -99383-4 0  9994,2 52669  53.2160 205.3181 0001805  79.2062 280.9133 15.08835012124575,6917.896,95.438,541.009,538.512,0.0
52669.0,STARLINK-3972,PAYLOAD,2024-08-14 07:59:18,15.08828831,0.0001646,53.2153,203.5296,92.9658,267.1522,-0.00012947,-2.347e-05,0.0,0 STARLINK-3972,1 52669U 22053P   24227.33284813 -.00002347  00000-0 -12947-3 0  9993,2 52669  53.2153 203.5296 0001646  92.9658 267.1522 15.08828831124637,6917.915,95.438,540.918,538.641,0.0
52669.0,STARLINK-3972,PAYLOAD,2024-08-14 15:56:13,15.0883136,0.0001591,53.2155,202.0429,93.3406,266.7768,-3.2245e-05,-8.01e-06,0.0,0 STARLINK-3972,1 52669U 22053P   24227.66404963 -.00000801  00000-0 -32245-4 0  9996,2 52669  53.2155 202.0429 0001591  93.3406 266.7768 15.08831360124689,6917.907,95.438,540.872,538.671,0.0
52669.0,STARLINK-3972,PAYLOAD,2024-08-15 04:39:19,15.08837282,0.0001509,53.2152,199.6646,81.8635,278.2529,0.00027989,4.169e-05,0.0,0 STARLINK-3972,1 52669U 22053P   24228.19397090  .00004169  00000-0  27989-3 0  9994,2 52669  53.2152 199.6646 0001509  81.8635 278.2529 15.08837282124764,6917.889,95.438,540.798,538.71,0.0
52669.0,STARLINK-3972,PAYLOAD,2024-08-15 15:47:00,15.08846632,0.0001459,53.2147,197.5836,82.4249,277.6908,0.00039154,5.95e-05,0.0,0 STARLINK-3972,1 52669U 22053P   24228.65764850  .00005950  00000-0  39154-3 0  9993,2 52669  53.2147 197.5836 0001459  82.4249 277.6908 15.08846632124839,6917.86,95.437,540.734,538.716,0.0
52669.0,STARLINK-3972,PAYLOAD,2024-08-16 04:30:06,15.08840138,0.00016,53.2162,195.2046,90.4976,269.6199,0.000216,3.151e-05,0.0,0 STARLINK-3972,1 52669U 22053P   24229.18757279  .00003151  00000-0  21600-3 0  9997,2 52669  53.2162 195.2046 0001600  90.4976 269.6199 15.08840138124915,6917.88,95.438,540.852,538.638,0.0
52669.0,STARLINK-3972,PAYLOAD,2024-08-16 21:59:20,15.08843489,0.000146,53.2157,191.9345,87.9126,272.2034,0.00015606,2.197e-05,0.0,0 STARLINK-3972,1 52669U 22053P   24229.91621078  .00002197  00000-0  15606-3 0  9993,2 52669  53.2157 191.9345 0001460  87.9126 272.2034 15.08843489125029,6917.87,95.437,540.745,538.725,0.0
52669.0,STARLINK-3972,PAYLOAD,2024-08-17 04:20:53,15.08836147,0.0001447,53.2154,190.7444,87.5237,272.5921,-4.0645e-05,-9.35e-06,0.0,0 STARLINK-3972,1 52669U 22053P   24230.18117400 -.00000935  00000-0 -40645-4 0  9995,2 52669  53.2154 190.7444 0001447  87.5237 272.5921 15.08836147125062,6917.892,95.438,540.758,538.756,0.0
52669.0,STARLINK-3972,PAYLOAD,2024-08-17 07:31:39,15.08836608,0.0001458,53.2154,190.149,88.756,271.3599,-2.2331e-05,-6.43e-06,0.0,0 STARLINK-3972,1 52669U 22053P   24230.31365394 -.00000643  00000-0 -22331-4 0  9995,2 52669  53.2154 190.1490 0001458  88.7560 271.3599 15.08836608125083,6917.891,95.438,540.764,538.747,0.0
52669.0,STARLINK-3972,PAYLOAD,2024-08-18 04:11:40,15.08841449,0.0001375,53.2154,186.2829,87.5133,272.6017,8.8389e-05,1.119e-05,0.0,0 STARLINK-3972,1 52669U 22053P   24231.17477207  .00001119  00000-0  88389-4 0  9999,2 52669  53.2154 186.2829 0001375  87.5133 272.6017 15.08841449125219,6917.876,95.437,540.692,538.79,0.0
52669.0,STARLINK-3972,PAYLOAD,2024-08-19 04:02:27,15.08833636,0.0001335,53.2167,181.8236,89.8378,270.2767,9.7239e-05,1.26e-05,0.0,0 STARLINK-3972,1 52669U 22053P   24232.16837928  .00001260  00000-0  97239-4 0  9990,2 52669  53.2167 181.8236 0001335  89.8378 270.2767 15.08833636125369,6917.9,95.438,540.688,538.841,0.0
52669.0,STARLINK-3972,PAYLOAD,2024-08-20 05:28:38,15.08839577,0.0001354,53.2164,177.0656,83.736,276.3786,6.0914e-05,6.82e-06,0.0,0 STARLINK-3972,1 52669U 22053P   24233.22821906  .00000682  00000-0  60914-4 0  9994,2 52669  53.2164 177.0656 0001354  83.7360 276.3786 15.08839577125520,6917.882,95.438,540.683,538.81,0.0
52669.0,STARLINK-3972,PAYLOAD,2024-08-21 03:44:01,15.0884456,0.0001355,53.2164,172.9025,82.9795,277.1351,0.00014876,2.081e-05,0.0,0 STARLINK-3972,1 52669U 22053P   24234.15557444  .00002081  00000-0  14876-3 0  9990,2 52669  53.2164 172.9025 0001355  82.9795 277.1351 15.08844560125668,6917.866,95.437,540.669,538.794,0.0
52669.0,STARLINK-3972,PAYLOAD,2024-08-21 19:37:53,15.08839545,0.0001495,53.2167,169.9285,81.8347,278.2815,7.5594e-05,9.15e-06,0.0,0 STARLINK-3972,1 52669U 22053P   24234.81798037  .00000915  00000-0  75594-4 0  9997,2 52669  53.2167 169.9285 0001495  81.8347 278.2815 15.08839545125766,6917.882,95.438,540.781,538.713,0.0
